[Satellite]
VERSION=1.1
NAME=SAUDICOMSAT 6
NICKNAME=SAUDICOMSAT 6
TLE1=1 31121U 07012E   17185.84228934  .00000024  00000-0  14860-4 0  9999
TLE2=2 31121  98.0159 140.5407 0078119  71.5542 289.4129 14.58388909543308
